HST                     
1 20580U 90037B   26093.66929401  .00012406  00000+0  40809-3 0  9997
2 20580  28.4724 229.5454 0002132  51.9469 308.1319 15.29899616777144
POLAR                   
1 23802U 96013A   26094.09552595  .00000097  00000+0  00000+0 0  9999
2 23802  79.7819 227.9051 6395568 211.6054  85.4938  1.29845741143898
SWAS                    
1 25560U 98071A   26094.25486735  .00007503  00000+0  47826-3 0  9998
2 25560  69.8969  58.0992 0006106 334.3335  25.7525 15.09098782486112
CXO                     
1 25867U 99040B   26095.33038449  .00000781  00000+0  00000+0 0  9990
2 25867  54.9818 118.8093 7953036 310.6470   0.0525  0.37805440 17044
XMM-NEWTON              
1 25989U 99066A   26095.54798203  .00000069  00000+0  00000+0 0  9996
2 25989  64.8516 283.9204 4698499  66.1986   0.0494  0.50130994 22640
TERRA                   
1 25994U 99068A   26094.26120273  .00000777  00000+0  16741-3 0  9997
2 25994  97.9539 146.7122 0003671  99.1126 325.8657 14.61044406398816
CLUSTER II-FM7 (SAMBA)  
1 26410U 00041A   26090.03773165  .00002444  00000+0  00000+0 0  9999
2 26410 149.3581  38.1493 8953066 254.4502   0.4223  0.44796982 19968
CLUSTER II-FM8 (TANGO)  
1 26464U 00045B   26094.11120259  .00003194  00000+0  00000+0 0  9998
2 26464 149.6837  39.5667 8962149 255.7736   0.6086  0.44400104 19975
ODIN                    
1 26702U 01007A   26094.06606473  .00082546  00000+0  96588-3 0  9991
2 26702  97.4009 131.1923 0004595  88.3838 271.7946 15.61283420377790
TIMED                   
1 26998U 01055B   26094.20757407  .00003127  00000+0  28851-3 0  9997
2 26998  74.0713  23.9564 0002616 242.7441 117.3477 14.95117901319760
CORIOLIS                
1 27640U 03001A   26093.99706061  .00000216  00000+0  12223-3 0  9992
2 27640  98.7157 102.0082 0015085  68.5844 291.6940 14.19923337203698
SORCE                   
1 27651U 03004A   26094.01147896  .00006676  00000+0  49227-3 0  9996
2 27651  39.9919 324.7458 0018421 242.1037 117.7892 15.03306301260736
MOST                    
1 27843U 03031D   26094.01276038  .00000142  00000+0  85161-4 0  9990
2 27843  98.7077 102.7667 0010955 105.1822 255.0568 14.21306755180174
SCISAT 1                
1 27858U 03036A   26094.07602747  .00001220  00000+0  16069-3 0  9995
2 27858  73.9303 318.5863 0006402  31.6154 328.5405 14.81362357220475
SWIFT                   
1 28485U 04047A   26094.11616318  .00078953  00000+0  85589-3 0  9999
2 28485  20.5545  33.3576 0002943 354.8348   5.2067 15.61795317175244
HINODE (SOLAR-B)        
1 29479U 06041A   26094.05517075  .00001222  00000+0  21873-3 0  9993
2 29479  98.0603 111.2899 0018014 159.1078 201.0867 14.68518958 43999
SHIJIAN-6 02A (SJ-6 02A)
1 29505U 06046A   26094.25708730  .00016667  00000+0  86708-3 0  9997
2 29505  97.6441 134.7860 0004183  55.5517 304.6110 15.16114093 61066
